<?xml version="1.0" encoding="UTF-8"?>
<ndm xmlns:xsi="http://www.w3.org/2001/XMLSchema-instance" xsi:noNamespaceSchemaLocation="https://sanaregistry.org/r/ndmxml_unqualified/ndmxml-2.0.0-master-2.0.xsd">
<omm id="CCSDS_OMM_VERS" version="2.0">
<header><CREATION_DATE/><ORIGINATOR/></header><body><segment><metadata><OBJECT_NAME>ORBCOMM FM20</OBJECT_NAME><OBJECT_ID>1998-046D</OBJECT_ID><CENTER_NAME>EARTH</CENTER_NAME><REF_FRAME>TEME</REF_FRAME><TIME_SYSTEM>UTC</TIME_SYSTEM><MEAN_ELEMENT_THEORY>SGP4</MEAN_ELEMENT_THEORY></metadata><data><meanElements><EPOCH>2024-12-07T11:57:34.823808</EPOCH><MEAN_MOTION>14.36414096</MEAN_MOTION><ECCENTRICITY>.0002132</ECCENTRICITY><INCLINATION>44.9951</INCLINATION><RA_OF_ASC_NODE>8.5566</RA_OF_ASC_NODE><ARG_OF_PERICENTER>287.3329</ARG_OF_PERICENTER><MEAN_ANOMALY>72.7285</MEAN_ANOMALY></meanElements><tleParameters><EPHEMERIS_TYPE>0</EPHEMERIS_TYPE><CLASSIFICATION_TYPE>U</CLASSIFICATION_TYPE><NORAD_CAT_ID>25416</NORAD_CAT_ID><ELEMENT_SET_NO>999</ELEMENT_SET_NO><REV_AT_EPOCH>37669</REV_AT_EPOCH><BSTAR>.88135E-3</BSTAR><MEAN_MOTION_DOT>.2465E-4</MEAN_MOTION_DOT><MEAN_MOTION_DDOT>0</MEAN_MOTION_DDOT></tleParameters></data></segment></body></omm>
<omm id="CCSDS_OMM_VERS" version="2.0">
<header><CREATION_DATE/><ORIGINATOR/></header><body><segment><metadata><OBJECT_NAME>ORBCOMM FM16</OBJECT_NAME><OBJECT_ID>1998-046E</OBJECT_ID><CENTER_NAME>EARTH</CENTER_NAME><REF_FRAME>TEME</REF_FRAME><TIME_SYSTEM>UTC</TIME_SYSTEM><MEAN_ELEMENT_THEORY>SGP4</MEAN_ELEMENT_THEORY></metadata><data><meanElements><EPOCH>2024-12-07T13:32:19.453920</EPOCH><MEAN_MOTION>14.37806716</MEAN_MOTION><ECCENTRICITY>.0003242</ECCENTRICITY><INCLINATION>44.9947</INCLINATION><RA_OF_ASC_NODE>2.1272</RA_OF_ASC_NODE><ARG_OF_PERICENTER>15.3068</ARG_OF_PERICENTER><MEAN_ANOMALY>344.7878</MEAN_ANOMALY></meanElements><tleParameters><EPHEMERIS_TYPE>0</EPHEMERIS_TYPE><CLASSIFICATION_TYPE>U</CLASSIFICATION_TYPE><NORAD_CAT_ID>25417</NORAD_CAT_ID><ELEMENT_SET_NO>999</ELEMENT_SET_NO><REV_AT_EPOCH>37666</REV_AT_EPOCH><BSTAR>.11362E-2</BSTAR><MEAN_MOTION_DOT>.3314E-4</MEAN_MOTION_DOT><MEAN_MOTION_DDOT>0</MEAN_MOTION_DDOT></tleParameters></data></segment></body></omm>
<omm id="CCSDS_OMM_VERS" version="2.0">
<header><CREATION_DATE/><ORIGINATOR/></header><body><segment><metadata><OBJECT_NAME>ORBCOMM FM15</OBJECT_NAME><OBJECT_ID>1998-046F</OBJECT_ID><CENTER_NAME>EARTH</CENTER_NAME><REF_FRAME>TEME</REF_FRAME><TIME_SYSTEM>UTC</TIME_SYSTEM><MEAN_ELEMENT_THEORY>SGP4</MEAN_ELEMENT_THEORY></metadata><data><meanElements><EPOCH>2024-12-07T11:53:27.248928</EPOCH><MEAN_MOTION>14.37485733</MEAN_MOTION><ECCENTRICITY>.0002758</ECCENTRICITY><INCLINATION>44.9978</INCLINATION><RA_OF_ASC_NODE>7.0534</RA_OF_ASC_NODE><ARG_OF_PERICENTER>12.3267</ARG_OF_PERICENTER><MEAN_ANOMALY>347.7648</MEAN_ANOMALY></meanElements><tleParameters><EPHEMERIS_TYPE>0</EPHEMERIS_TYPE><CLASSIFICATION_TYPE>U</CLASSIFICATION_TYPE><NORAD_CAT_ID>25418</NORAD_CAT_ID><ELEMENT_SET_NO>999</ELEMENT_SET_NO><REV_AT_EPOCH>37665</REV_AT_EPOCH><BSTAR>.10947E-2</BSTAR><MEAN_MOTION_DOT>.3166E-4</MEAN_MOTION_DOT><MEAN_MOTION_DDOT>0</MEAN_MOTION_DDOT></tleParameters></data></segment></body></omm>
<omm id="CCSDS_OMM_VERS" version="2.0">
<header><CREATION_DATE/><ORIGINATOR/></header><body><segment><metadata><OBJECT_NAME>ORBCOMM FM14</OBJECT_NAME><OBJECT_ID>1998-046G</OBJECT_ID><CENTER_NAME>EARTH</CENTER_NAME><REF_FRAME>TEME</REF_FRAME><TIME_SYSTEM>UTC</TIME_SYSTEM><MEAN_ELEMENT_THEORY>SGP4</MEAN_ELEMENT_THEORY></metadata><data><meanElements><EPOCH>2024-12-07T10:01:46.477056</EPOCH><MEAN_MOTION>14.37769945</MEAN_MOTION><ECCENTRICITY>.0002493</ECCENTRICITY><INCLINATION>44.9967</INCLINATION><RA_OF_ASC_NODE>6.1573</RA_OF_ASC_NODE><ARG_OF_PERICENTER>345.3420</ARG_OF_PERICENTER><MEAN_ANOMALY>14.7355</MEAN_ANOMALY></meanElements><tleParameters><EPHEMERIS_TYPE>0</EPHEMERIS_TYPE><CLASSIFICATION_TYPE>U</CLASSIFICATION_TYPE><NORAD_CAT_ID>25419</NORAD_CAT_ID><ELEMENT_SET_NO>999</ELEMENT_SET_NO><REV_AT_EPOCH>37660</REV_AT_EPOCH><BSTAR>.10434E-2</BSTAR><MEAN_MOTION_DOT>.3029E-4</MEAN_MOTION_DOT><MEAN_MOTION_DDOT>0</MEAN_MOTION_DDOT></tleParameters></data></segment></body></omm>
<omm id="CCSDS_OMM_VERS" version="2.0">
<header><CREATION_DATE/><ORIGINATOR/></header><body><segment><metadata><OBJECT_NAME>ORBCOMM FM13</OBJECT_NAME><OBJECT_ID>1998-046H</OBJECT_ID><CENTER_NAME>EARTH</CENTER_NAME><REF_FRAME>TEME</REF_FRAME><TIME_SYSTEM>UTC</TIME_SYSTEM><MEAN_ELEMENT_THEORY>SGP4</MEAN_ELEMENT_THEORY></metadata><data><meanElements><EPOCH>2024-12-07T19:06:30.345984</EPOCH><MEAN_MOTION>14.36753784</MEAN_MOTION><ECCENTRICITY>.0004177</ECCENTRICITY><INCLINATION>44.9984</INCLINATION><RA_OF_ASC_NODE>10.6291</RA_OF_ASC_NODE><ARG_OF_PERICENTER>5.7612</ARG_OF_PERICENTER><MEAN_ANOMALY>354.3283</MEAN_ANOMALY></meanElements><tleParameters><EPHEMERIS_TYPE>0</EPHEMERIS_TYPE><CLASSIFICATION_TYPE>U</CLASSIFICATION_TYPE><NORAD_CAT_ID>25420</NORAD_CAT_ID><ELEMENT_SET_NO>999</ELEMENT_SET_NO><REV_AT_EPOCH>37683</REV_AT_EPOCH><BSTAR>.99896E-3</BSTAR><MEAN_MOTION_DOT>.2833E-4</MEAN_MOTION_DOT><MEAN_MOTION_DDOT>0</MEAN_MOTION_DDOT></tleParameters></data></segment></body></omm>
<omm id="CCSDS_OMM_VERS" version="2.0">
<header><CREATION_DATE/><ORIGINATOR/></header><body><segment><metadata><OBJECT_NAME>ORBCOMM FM21</OBJECT_NAME><OBJECT_ID>1998-053A</OBJECT_ID><CENTER_NAME>EARTH</CENTER_NAME><REF_FRAME>TEME</REF_FRAME><TIME_SYSTEM>UTC</TIME_SYSTEM><MEAN_ELEMENT_THEORY>SGP4</MEAN_ELEMENT_THEORY></metadata><data><meanElements><EPOCH>2024-12-07T13:23:02.503968</EPOCH><MEAN_MOTION>14.36549407</MEAN_MOTION><ECCENTRICITY>.0001563</ECCENTRICITY><INCLINATION>45.0075</INCLINATION><RA_OF_ASC_NODE>96.4767</RA_OF_ASC_NODE><ARG_OF_PERICENTER>254.1947</ARG_OF_PERICENTER><MEAN_ANOMALY>105.8729</MEAN_ANOMALY></meanElements><tleParameters><EPHEMERIS_TYPE>0</EPHEMERIS_TYPE><CLASSIFICATION_TYPE>U</CLASSIFICATION_TYPE><NORAD_CAT_ID>25475</NORAD_CAT_ID><ELEMENT_SET_NO>999</ELEMENT_SET_NO><REV_AT_EPOCH>36968</REV_AT_EPOCH><BSTAR>.97874E-3</BSTAR><MEAN_MOTION_DOT>.2761E-4</MEAN_MOTION_DOT><MEAN_MOTION_DDOT>0</MEAN_MOTION_DDOT></tleParameters></data></segment></body></omm>
<omm id="CCSDS_OMM_VERS" version="2.0">
<header><CREATION_DATE/><ORIGINATOR/></header><body><segment><metadata><OBJECT_NAME>ORBCOMM FM22</OBJECT_NAME><OBJECT_ID>1998-053B</OBJECT_ID><CENTER_NAME>EARTH</CENTER_NAME><REF_FRAME>TEME</REF_FRAME><TIME_SYSTEM>UTC</TIME_SYSTEM><MEAN_ELEMENT_THEORY>SGP4</MEAN_ELEMENT_THEORY></metadata><data><meanElements><EPOCH>2024-12-07T18:55:48.825120</EPOCH><MEAN_MOTION>14.37354127</MEAN_MOTION><ECCENTRICITY>.0002712</ECCENTRICITY><INCLINATION>45.0069</INCLINATION><RA_OF_ASC_NODE>91.6220</RA_OF_ASC_NODE><ARG_OF_PERICENTER>295.8223</ARG_OF_PERICENTER><MEAN_ANOMALY>64.2345</MEAN_ANOMALY></meanElements><tleParameters><EPHEMERIS_TYPE>0</EPHEMERIS_TYPE><CLASSIFICATION_TYPE>U</CLASSIFICATION_TYPE><NORAD_CAT_ID>25476</NORAD_CAT_ID><ELEMENT_SET_NO>999</ELEMENT_SET_NO><REV_AT_EPOCH>37008</REV_AT_EPOCH><BSTAR>.12628E-2</BSTAR><MEAN_MOTION_DOT>.3665E-4</MEAN_MOTION_DOT><MEAN_MOTION_DDOT>0</MEAN_MOTION_DDOT></tleParameters></data></segment></body></omm>
<omm id="CCSDS_OMM_VERS" version="2.0">
<header><CREATION_DATE/><ORIGINATOR/></header><body><segment><metadata><OBJECT_NAME>ORBCOMM FM23</OBJECT_NAME><OBJECT_ID>1998-053C</OBJECT_ID><CENTER_NAME>EARTH</CENTER_NAME><REF_FRAME>TEME</REF_FRAME><TIME_SYSTEM>UTC</TIME_SYSTEM><MEAN_ELEMENT_THEORY>SGP4</MEAN_ELEMENT_THEORY></metadata><data><meanElements><EPOCH>2024-12-07T18:52:08.475744</EPOCH><MEAN_MOTION>14.36649490</MEAN_MOTION><ECCENTRICITY>.0002051</ECCENTRICITY><INCLINATION>45.0074</INCLINATION><RA_OF_ASC_NODE>97.7314</RA_OF_ASC_NODE><ARG_OF_PERICENTER>281.9260</ARG_OF_PERICENTER><MEAN_ANOMALY>78.1358</MEAN_ANOMALY></meanElements><tleParameters><EPHEMERIS_TYPE>0</EPHEMERIS_TYPE><CLASSIFICATION_TYPE>U</CLASSIFICATION_TYPE><NORAD_CAT_ID>25477</NORAD_CAT_ID><ELEMENT_SET_NO>999</ELEMENT_SET_NO><REV_AT_EPOCH>37017</REV_AT_EPOCH><BSTAR>.1188E-2</BSTAR><MEAN_MOTION_DOT>.3389E-4</MEAN_MOTION_DOT><MEAN_MOTION_DDOT>0</MEAN_MOTION_DDOT></tleParameters></data></segment></body></omm>

</ndm>
