ORBCOMM FM20            
1 25416U 98046D   24342.49831972  .00002465  00000+0  88135-3 0  9997
2 25416  44.9951   8.5566 0002132 287.3329  72.7285 14.36414096376694
ORBCOMM FM16            
1 25417U 98046E   24342.56411405  .00003314  00000+0  11362-2 0  9992
2 25417  44.9947   2.1272 0003242  15.3068 344.7878 14.37806716376668
ORBCOMM FM15            
1 25418U 98046F   24342.49545427  .00003166  00000+0  10947-2 0  9990
2 25418  44.9978   7.0534 0002758  12.3267 347.7648 14.37485733376656
ORBCOMM FM14            
1 25419U 98046G   24342.41789904  .00003029  00000+0  10434-2 0  9992
2 25419  44.9967   6.1573 0002493 345.3420  14.7355 14.37769945376605
ORBCOMM FM13            
1 25420U 98046H   24342.79618456  .00002833  00000+0  99896-3 0  9990
2 25420  44.9984  10.6291 0004177   5.7612 354.3283 14.36753784376835
ORBCOMM FM21            
1 25475U 98053A   24342.55766787  .00002761  00000+0  97874-3 0  9997
2 25475  45.0075  96.4767 0001563 254.1947 105.8729 14.36549407369689
ORBCOMM FM22            
1 25476U 98053B   24342.78875955  .00003665  00000+0  12628-2 0  9998
2 25476  45.0069  91.6220 0002712 295.8223  64.2345 14.37354127370082
ORBCOMM FM23            
1 25477U 98053C   24342.78620921  .00003389  00000+0  11880-2 0  9992
2 25477  45.0074  97.7314 0002051 281.9260  78.1358 14.36649490370170
